[{"OBJECT_NAME":"AII-BRAVO","OBJECT_ID":"2021-034C","EPOCH":"2026-03-09T16:41:41.144640","MEAN_MOTION":15.02621336,"ECCENTRICITY":0.00053718,"INCLINATION":97.5758,"RA_OF_ASC_NODE":125.8704,"ARG_OF_PERICENTER":233.3237,"MEAN_ANOMALY":126.7495,"EPHEMERIS_TYPE":0,"CLASSIFICATION_TYPE":"U","NORAD_CAT_ID":48270,"ELEMENT_SET_NO":999,"REV_AT_EPOCH":26467,"BSTAR":0.00046526558,"MEAN_MOTION_DOT":6.142e-5,"MEAN_MOTION_DDOT":0},{"OBJECT_NAME":"CZ-6A DEB","OBJECT_ID":"2024-140AET","EPOCH":"2026-03-09T12:52:08.504256","MEAN_MOTION":14.9565513,"ECCENTRICITY":0.00551091,"INCLINATION":88.9325,"RA_OF_ASC_NODE":275.873,"ARG_OF_PERICENTER":183.9615,"MEAN_ANOMALY":176.1189,"EPHEMERIS_TYPE":0,"CLASSIFICATION_TYPE":"U","NORAD_CAT_ID":64653,"ELEMENT_SET_NO":999,"REV_AT_EPOCH":7426,"BSTAR":0.0038297655,"MEAN_MOTION_DOT":0.00044109,"MEAN_MOTION_DDOT":0}]
